{"type": "FeatureCollection", "features": [ {"type": "Feature", "properties": {"norad_id": 30160, "name": "FENGYUN 1C DEB", "group": "fengyun-1c-debris", "lat": 53.19975256054132, "lon": 132.6846593032085, "alt_km": 843.1392408112351, "timestamp": "2025-12-18T17:50:15.231334+00:00", "meta": {"OBJECT_NAME": "FENGYUN 1C DEB", "OBJECT_ID": "1999-025TR", "EPOCH": "2025-12-18T03:01:46.315200", "MEAN_MOTION": 13.4289786, "ECCENTRICITY": 0.03430761, "INCLINATION": 98.8867, "RA_OF_ASC_NODE": 300.0682, "ARG_OF_PERICENTER": 114.2198, "MEAN_ANOMALY": 269.4082, "EPHEMERIS_TYPE": 0, "CLASSIFICATION_TYPE": "U", "NORAD_CAT_ID": 30160, "ELEMENT_SET_NO": 999, "REV_AT_EPOCH": 92486, "BSTAR": 0.00088988286, "MEAN_MOTION_DOT": 6.85e-06, "MEAN_MOTION_DDOT": 0}, "tle": {"line1": "1 30160U 99025TR  25352.12623050  .00000685  00000+0  88988-3 0  9993", "line2": "2 30160  98.8867 300.0682 0343076 114.2198 269.4082 13.42897860924864"}}, "geometry": {"type": "Point", "coordinates": [132.6846593032085, 53.19975256054132]}}, {"type": "Feature", "properties": {"norad_id": 30161, "name": "FENGYUN 1C DEB", "group": "fengyun-1c-debris", "lat": -5.42334348102358, "lon": 159.46234312644816, "alt_km": 941.455824186959, "timestamp": "2025-12-18T17:50:15.231345+00:00", "meta": {"OBJECT_NAME": "FENGYUN 1C DEB", "OBJECT_ID": "1999-025TS", "EPOCH": "2025-12-17T21:39:38.446848", "MEAN_MOTION": 13.49735838, "ECCENTRICITY": 0.03279257, "INCLINATION": 100.5051, "RA_OF_ASC_NODE": 339.5848, "ARG_OF_PERICENTER": 245.4196, "MEAN_ANOMALY": 180.1342, "EPHEMERIS_TYPE": 0, "CLASSIFICATION_TYPE": "U", "NORAD_CAT_ID": 30161, "ELEMENT_SET_NO": 999, "REV_AT_EPOCH": 92629, "BSTAR": 0.0014277525, "MEAN_MOTION_DOT": 1.211e-05, "MEAN_MOTION_DDOT": 0}, "tle": {"line1": "1 30161U 99025TS  25351.90252832  .00001211  00000+0  14278-2 0  9991", "line2": "2 30161 100.5051 339.5848 0327925 245.4196 180.1342 13.49735838926292"}}, "geometry": {"type": "Point", "coordinates": [159.46234312644816, -5.42334348102358]}}, {"type": "Feature", "properties": {"norad_id": 30162, "name": "FENGYUN 1C DEB", "group": "fengyun-1c-debris", "lat": 69.09580458998434, "lon": 22.605275245909944, "alt_km": 1073.9108974857309, "timestamp": "2025-12-18T17:50:15.231355+00:00", "meta": {"OBJECT_NAME": "FENGYUN 1C DEB", "OBJECT_ID": "1999-025TT", "EPOCH": "2025-12-18T03:34:04.677600", "MEAN_MOTION": 13.53422148, "ECCENTRICITY": 0.03138057, "INCLINATION": 99.4887, "RA_OF_ASC_NODE": 48.0022, "ARG_OF_PERICENTER": 335.8707, "MEAN_ANOMALY": 76.4495, "EPHEMERIS_TYPE": 0, "CLASSIFICATION_TYPE": "U", "NORAD_CAT_ID": 30162, "ELEMENT_SET_NO": 999, "REV_AT_EPOCH": 92734, "BSTAR": 0.0022799822, "MEAN_MOTION_DOT": 2.048e-05, "MEAN_MOTION_DDOT": 0}, "tle": {"line1": "1 30162U 99025TT  25352.14866525  .00002048  00000+0  22800-2 0  9998", "line2": "2 30162  99.4887  48.0022 0313805 335.8707  76.4495 13.53422148927341"}}, "geometry": {"type": "Point", "coordinates": [22.605275245909944, 69.09580458998434]}}, {"type": "Feature", "properties": {"norad_id": 30163, "name": "FENGYUN 1C DEB", "group": "fengyun-1c-debris", "lat": 59.09421243188974, "lon": -58.186159522675894, "alt_km": 1135.1612357197555, "timestamp": "2025-12-18T17:50:15.231365+00:00", "meta": {"OBJECT_NAME": "FENGYUN 1C DEB", "OBJECT_ID": "1999-025TU", "EPOCH": "2025-12-18T06:35:30.142752", "MEAN_MOTION": 13.38798074, "ECCENTRICITY": 0.03738255, "INCLINATION": 98.7014, "RA_OF_ASC_NODE": 106.5893, "ARG_OF_PERICENTER": 218.5962, "MEAN_ANOMALY": 168.1724, "EPHEMERIS_TYPE": 0, "CLASSIFICATION_TYPE": "U", "NORAD_CAT_ID": 30163, "ELEMENT_SET_NO": 999, "REV_AT_EPOCH": 92019, "BSTAR": 0.0016829741, "MEAN_MOTION_DOT": 1.312e-05, "MEAN_MOTION_DDOT": 0}, "tle": {"line1": "1 30163U 99025TU  25352.27465443  .00001312  00000+0  16830-2 0  9996", "line2": "2 30163  98.7014 106.5893 0373825 218.5962 168.1724 13.38798074920197"}}, "geometry": {"type": "Point", "coordinates": [-58.186159522675894, 59.09421243188974]}}, {"type": "Feature", "properties": {"norad_id": 30167, "name": "FENGYUN 1C DEB", "group": "fengyun-1c-debris", "lat": -74.9516992145473, "lon": 114.25676487406963, "alt_km": 821.7415689485279, "timestamp": "2025-12-18T17:50:15.231375+00:00", "meta": {"OBJECT_NAME": "FENGYUN 1C DEB", "OBJECT_ID": "1999-025TY", "EPOCH": "2025-12-18T05:15:18.626112", "MEAN_MOTION": 14.4856278, "ECCENTRICITY": 0.01442274, "INCLINATION": 98.9682, "RA_OF_ASC_NODE": 77.7289, "ARG_OF_PERICENTER": 138.1465, "MEAN_ANOMALY": 290.6793, "EPHEMERIS_TYPE": 0, "CLASSIFICATION_TYPE": "U", "NORAD_CAT_ID": 30167, "ELEMENT_SET_NO": 999, "REV_AT_EPOCH": 99438, "BSTAR": 0.00037131816, "MEAN_MOTION_DOT": 1.536e-05, "MEAN_MOTION_DDOT": 0}, "tle": {"line1": "1 30167U 99025TY  25352.21896558  .00001536  00000+0  37132-3 0  9996", "line2": "2 30167  98.9682  77.7289 0144227 138.1465 290.6793 14.48562780994383"}}, "geometry": {"type": "Point", "coordinates": [114.25676487406963, -74.9516992145473]}}, {"type": "Feature", "properties": {"norad_id": 30168, "name": "FENGYUN 1C DEB", "group": "fengyun-1c-debris", "lat": 80.31541021192932, "lon": 14.894697426770774, "alt_km": 663.8000813985045, "timestamp": "2025-12-18T17:50:15.231385+00:00", "meta": {"OBJECT_NAME": "FENGYUN 1C DEB", "OBJECT_ID": "1999-025TZ", "EPOCH": "2025-12-18T04:13:50.841696", "MEAN_MOTION": 14.52956212, "ECCENTRICITY": 0.01005879, "INCLINATION": 97.3902, "RA_OF_ASC_NODE": 63.9053, "ARG_OF_PERICENTER": 137.0924, "MEAN_ANOMALY": 223.8178, "EPHEMERIS_TYPE": 0, "CLASSIFICATION_TYPE": "U", "NORAD_CAT_ID": 30168, "ELEMENT_SET_NO": 999, "REV_AT_EPOCH": 98390, "BSTAR": 0.0014161031, "MEAN_MOTION_DOT": 6.204e-05, "MEAN_MOTION_DDOT": 0}, "tle": {"line1": "1 30168U 99025TZ  25352.17628289  .00006204  00000+0  14161-2 0  9999", "line2": "2 30168  97.3902  63.9053 0100587 137.0924 223.8178 14.52956212983900"}}, "geometry": {"type": "Point", "coordinates": [14.894697426770774, 80.31541021192932]}}, {"type": "Feature", "properties": {"norad_id": 30169, "name": "FENGYUN 1C DEB", "group": "fengyun-1c-debris", "lat": 18.012823838780637, "lon": 59.49641739628563, "alt_km": 847.4712599331542, "timestamp": "2025-12-18T17:50:15.231396+00:00", "meta": {"OBJECT_NAME": "FENGYUN 1C DEB", "OBJECT_ID": "1999-025UA", "EPOCH": "2025-12-18T04:41:47.501952", "MEAN_MOTION": 14.58251487, "ECCENTRICITY": 0.02130618, "INCLINATION": 98.3367, "RA_OF_ASC_NODE": 61.68, "ARG_OF_PERICENTER": 210.1847, "MEAN_ANOMALY": 174.9422, "EPHEMERIS_TYPE": 0, "CLASSIFICATION_TYPE": "U", "NORAD_CAT_ID": 30169, "ELEMENT_SET_NO": 999, "REV_AT_EPOCH": 97803, "BSTAR": 0.0020025451, "MEAN_MOTION_DOT": 0.00012634, "MEAN_MOTION_DDOT": 0}, "tle": {"line1": "1 30169U 99025UA  25352.19568868  .00012634  00000+0  20025-2 0  9998", "line2": "2 30169  98.3367  61.6800 0213061 210.1847 174.9422 14.58251487978035"}}, "geometry": {"type": "Point", "coordinates": [59.49641739628563, 18.012823838780637]}}, {"type": "Feature", "properties": {"norad_id": 30170, "name": "FENGYUN 1C DEB", "group": "fengyun-1c-debris", "lat": -36.267178508305, "lon": 153.0206012847118, "alt_km": 856.5814118250973, "timestamp": "2025-12-18T17:50:15.231406+00:00", "meta": {"OBJECT_NAME": "FENGYUN 1C DEB", "OBJECT_ID": "1999-025UB", "EPOCH": "2025-12-17T22:04:41.856096", "MEAN_MOTION": 14.0031467, "ECCENTRICITY": 0.00770354, "INCLINATION": 98.8485, "RA_OF_ASC_NODE": 338.7865, "ARG_OF_PERICENTER": 260.1053, "MEAN_ANOMALY": 129.055, "EPHEMERIS_TYPE": 0, "CLASSIFICATION_TYPE": "U", "NORAD_CAT_ID": 30170, "ELEMENT_SET_NO": 999, "REV_AT_EPOCH": 96488, "BSTAR": 0.00035155302, "MEAN_MOTION_DOT": 4.9e-06, "MEAN_MOTION_DDOT": 0}, "tle": {"line1": "1 30170U 99025UB  25351.91992889  .00000490  00000+0  35155-3 0  9991", "line2": "2 30170  98.8485 338.7865 0077035 260.1053 129.0550 14.00314670964887"}}, "geometry": {"type": "Point", "coordinates": [153.0206012847118, -36.267178508305]}}, {"type": "Feature", "properties": {"norad_id": 30171, "name": "FENGYUN 1C DEB", "group": "fengyun-1c-debris", "lat": 6.3372674779099345, "lon": -151.00708274436388, "alt_km": 963.5571905634724, "timestamp": "2025-12-18T17:50:15.231416+00:00", "meta": {"OBJECT_NAME": "FENGYUN 1C DEB", "OBJECT_ID": "1999-025UC", "EPOCH": "2025-12-18T04:03:13.427424", "MEAN_MOTION": 13.96862735, "ECCENTRICITY": 0.01842941, "INCLINATION": 98.3978, "RA_OF_ASC_NODE": 209.408, "ARG_OF_PERICENTER": 252.1193, "MEAN_ANOMALY": 105.9798, "EPHEMERIS_TYPE": 0, "CLASSIFICATION_TYPE": "U", "NORAD_CAT_ID": 30171, "ELEMENT_SET_NO": 999, "REV_AT_EPOCH": 96346, "BSTAR": 0.00030406221, "MEAN_MOTION_DOT": 4.48e-06, "MEAN_MOTION_DDOT": 0}, "tle": {"line1": "1 30171U 99025UC  25352.16890541  .00000448  00000+0  30406-3 0  9999", "line2": "2 30171  98.3978 209.4080 0184294 252.1193 105.9798 13.96862735963469"}}, "geometry": {"type": "Point", "coordinates": [-151.00708274436388, 6.3372674779099345]}}, {"type": "Feature", "properties": {"norad_id": 30172, "name": "FENGYUN 1C DEB", "group": "fengyun-1c-debris", "lat": -7.933897451952781, "lon": -26.704191456283645, "alt_km": 903.1201131647213, "timestamp": "2025-12-18T17:50:15.231426+00:00", "meta": {"OBJECT_NAME": "FENGYUN 1C DEB", "OBJECT_ID": "1999-025UD", "EPOCH": "2025-12-17T21:43:56.491680", "MEAN_MOTION": 14.12489068, "ECCENTRICITY": 0.00687339, "INCLINATION": 99.2345, "RA_OF_ASC_NODE": 331.1337, "ARG_OF_PERICENTER": 187.4282, "MEAN_ANOMALY": 227.055, "EPHEMERIS_TYPE": 0, "CLASSIFICATION_TYPE": "U", "NORAD_CAT_ID": 30172, "ELEMENT_SET_NO": 999, "REV_AT_EPOCH": 96590, "BSTAR": 0.0010679824, "MEAN_MOTION_DOT": 1.971e-05, "MEAN_MOTION_DDOT": 0}, "tle": {"line1": "1 30172U 99025UD  25351.90551495  .00001971  00000+0  10680-2 0  9996", "line2": "2 30172  99.2345 331.1337 0068733 187.4282 227.0550 14.12489068965900"}}, "geometry": {"type": "Point", "coordinates": [-26.704191456283645, -7.933897451952781]}}]}